[{"OBJECT_NAME":"STARLINK-34138","OBJECT_ID":"2025-099V","EPOCH":"2026-03-09T08:14:14.542368","MEAN_MOTION":15.27596925,"ECCENTRICITY":0.00043067,"INCLINATION":43.001,"RA_OF_ASC_NODE":174.6815,"ARG_OF_PERICENTER":288.6513,"MEAN_ANOMALY":71.3871,"EPHEMERIS_TYPE":0,"CLASSIFICATION_TYPE":"U","NORAD_CAT_ID":63971,"ELEMENT_SET_NO":999,"REV_AT_EPOCH":4732,"BSTAR":0.001031966,"MEAN_MOTION_DOT":0.00028264,"MEAN_MOTION_DDOT":0},{"OBJECT_NAME":"THOR AGENA B DEB","OBJECT_ID":"1965-098G","EPOCH":"2026-03-09T23:22:06.853152","MEAN_MOTION":13.57256453,"ECCENTRICITY":0.07679635,"INCLINATION":79.6109,"RA_OF_ASC_NODE":51.0692,"ARG_OF_PERICENTER":143.4347,"MEAN_ANOMALY":222.1845,"EPHEMERIS_TYPE":0,"CLASSIFICATION_TYPE":"U","NORAD_CAT_ID":1951,"ELEMENT_SET_NO":999,"REV_AT_EPOCH":79416,"BSTAR":0.00077607754,"MEAN_MOTION_DOT":4.232e-5,"MEAN_MOTION_DDOT":0}]
